{"type": "FeatureCollection", "features": [{"type": "Feature", "properties": {"ADM0_LEFT": "Switzerland", "ADM0_RIGHT": "Italy", "NAME": null}, "geometry": {"type": "MultiLineString", "coordinates": [[[7.022083, 45.92526], [7.066938, 45.890223], [7.090192, 45.880508], [7.120888, 45.876116], [7.153547, 45.876529], [7.183726, 45.880456], [7.245428, 45.89813], [7.27354, 45.910274], [7.286666, 45.913426], [7.361803, 45.907845], [7.393843, 45.9157], [7.452961, 45.945879], [7.482726, 45.954871], [7.503707, 45.956731], [7.514662, 45.966704], [7.524377, 45.978073], [7.541121, 45.984119], [7.643027, 45.966343], [7.658736, 45.960038], [7.673722, 45.950323], [7.692533, 45.931203], [7.69398, 45.928671], [7.706279, 45.925725], [7.71465, 45.92712], [7.722195, 45.929601], [7.732013, 45.930376], [7.780072, 45.918129], [7.807564, 45.91849], [7.825444, 45.914666], [7.831232, 45.91446], [7.843738, 45.919214], [7.846115, 45.922573], [7.845288, 45.927792], [7.848389, 45.938076], [7.84962, 45.939712], [7.870201, 45.94037], [7.872917, 45.959383], [7.883782, 45.973869], [7.898205, 45.981949], [7.969105, 45.993111], [7.978717, 45.995178], [7.985848, 45.999312], [7.998354, 46.010629], [7.999077, 46.0128], [8.008792, 46.027683], [8.010653, 46.029698], [8.015924, 46.058172], [8.016027, 46.069385], [8.018197, 46.080858], [8.025329, 46.091141], [8.035354, 46.096516], [8.056025, 46.098066], [8.066877, 46.100598], [8.110595, 46.126953], [8.132299, 46.159354], [8.129509, 46.196044], [8.09995, 46.235629], [8.076592, 46.249736], [8.073078, 46.253612], [8.077315, 46.262035], [8.087341, 46.271802], [8.106874, 46.285548], [8.128475, 46.292473], [8.171883, 46.299191], [8.192554, 46.309164], [8.24175, 46.354123], [8.270068, 46.364044], [8.281541, 46.370116], [8.291462, 46.378359], [8.297457, 46.387506], [8.297043, 46.397634], [8.290429, 46.401122], [8.286605, 46.40536], [8.294976, 46.418046], [8.316267, 46.433653], [8.343449, 46.443885], [8.385907, 46.450206], [8.399156, 46.452179], [8.427888, 46.44869], [8.441634, 46.434945], [8.445768, 46.412362], [8.446285, 46.382183], [8.442874, 46.353373], [8.426648, 46.301568], [8.423237, 46.275833], [8.427165, 46.251442], [8.43812, 46.23537], [8.456517, 46.224828], [8.482665, 46.217542], [8.51026, 46.207878], [8.538682, 46.187621], [8.601831, 46.122819], [8.611546, 46.119357], [8.630873, 46.114706], [8.677485, 46.095792], [8.695055, 46.095172], [8.702187, 46.097963], [8.71769, 46.107523], [8.723891, 46.109538], [8.728983, 46.108233], [8.732159, 46.107419], [8.739497, 46.098066], [8.747145, 46.094449], [8.763165, 46.092898], [8.793861, 46.093415], [8.80895, 46.089746], [8.834375, 46.066388], [8.819596, 46.042927], [8.790967, 46.018691], [8.773397, 45.990579], [8.769573, 45.985773], [8.767919, 45.983086], [8.785076, 45.982311], [8.800372, 45.978538], [8.857733, 45.957093], [8.864451, 45.953424], [8.870962, 45.947067], [8.88078, 45.931099], [8.898144, 45.90955], [8.906515, 45.896476], [8.912096, 45.883402], [8.91375, 45.86609], [8.909719, 45.853688], [8.903725, 45.841802], [8.900004, 45.826403], [8.939588, 45.834826], [8.972351, 45.824646], [9.002427, 45.820718], [9.034363, 45.848107], [9.059271, 45.881955], [9.063095, 45.898957], [9.051726, 45.915545], [9.042321, 45.919731], [9.020514, 45.922779], [9.010798, 45.926655], [9.001703, 45.93606], [8.993435, 45.95425], [8.982686, 45.961847], [8.980516, 45.964379], [8.979793, 45.966911], [8.980516, 45.969495], [8.982686, 45.971975], [9.015553, 45.993111], [8.997776, 46.027941], [9.002117, 46.03931], [9.027748, 46.053107], [9.049659, 46.057913], [9.059168, 46.061789], [9.067126, 46.071142], [9.07033, 46.083441], [9.068159, 46.105972], [9.072087, 46.118892], [9.090587, 46.138167], [9.163244, 46.172273], [9.163788, 46.172989], [9.171099, 46.182609], [9.17575, 46.194132], [9.181331, 46.204054], [9.192183, 46.209635], [9.204172, 46.213563], [9.215747, 46.221056], [9.224842, 46.231184], [9.239725, 46.266996], [9.268974, 46.309371], [9.275175, 46.331385], [9.273831, 46.344252], [9.260396, 46.379728], [9.260292, 46.394017], [9.262876, 46.406626], [9.260912, 46.416651], [9.24758, 46.423033], [9.237968, 46.436547], [9.245823, 46.461041], [9.263186, 46.485122], [9.282306, 46.49737], [9.330986, 46.501504], [9.350829, 46.497861], [9.351553, 46.485484], [9.377081, 46.468689], [9.384626, 46.466416], [9.395478, 46.469413], [9.400335, 46.475407], [9.403849, 46.482513], [9.410671, 46.488895], [9.426794, 46.497111], [9.434648, 46.498326], [9.437852, 46.492047], [9.443847, 46.396136], [9.4424, 46.380891], [9.444364, 46.375284], [9.451598, 46.370375], [9.473716, 46.361874], [9.482604, 46.35681], [9.502551, 46.32074], [9.515264, 46.308596], [9.536451, 46.298622], [9.559705, 46.292731], [9.674324, 46.291801], [9.693134, 46.297072], [9.70843, 46.311748], [9.708844, 46.319629], [9.707293, 46.330972], [9.709257, 46.342392], [9.720109, 46.350893], [9.730858, 46.350712], [9.755249, 46.340532], [9.768065, 46.33862], [9.788839, 46.343296], [9.855398, 46.366964], [9.899013, 46.372158], [9.918443, 46.37115], [9.93901, 46.367455], [9.964022, 46.356086], [9.970636, 46.339808], [9.97105, 46.320016], [9.977561, 46.298105], [9.992237, 46.284359], [10.031718, 46.260072], [10.041847, 46.24307], [10.042673, 46.220487], [10.075746, 46.220022], [10.117914, 46.231133], [10.14582, 46.243328], [10.158945, 46.262449], [10.14613, 46.280277], [10.104892, 46.309371], [10.095797, 46.320533], [10.091766, 46.328956], [10.092386, 46.338103], [10.09745, 46.351642], [10.104995, 46.361357], [10.125976, 46.37438], [10.13321, 46.381098], [10.140755, 46.402905], [10.133417, 46.414016], [10.116157, 46.418822], [10.071405, 46.424816], [10.042053, 46.432722], [10.026344, 46.446262], [10.044017, 46.466984], [10.035335, 46.471066], [10.030478, 46.476673], [10.028101, 46.483934], [10.02686, 46.493184], [10.031201, 46.503829], [10.031408, 46.525792], [10.032752, 46.532975], [10.04133, 46.541863], [10.062931, 46.556746], [10.071199, 46.564394], [10.083498, 46.597002], [10.087839, 46.604392], [10.09745, 46.608035], [10.192122, 46.626819], [10.217856, 46.626974], [10.233773, 46.617982], [10.235737, 46.606691], [10.230259, 46.58615], [10.234703, 46.575298], [10.275941, 46.565531], [10.283796, 46.560725], [10.289067, 46.555687], [10.295371, 46.551087], [10.306637, 46.547496], [10.319452, 46.546049], [10.354282, 46.548323], [10.425906, 46.535326], [10.443993, 46.537729], [10.451833, 46.546702], [10.457945, 46.553697], [10.465903, 46.578476], [10.466627, 46.604288], [10.459082, 46.623564], [10.438205, 46.635656], [10.395623, 46.638808], [10.377537, 46.653277], [10.369165, 46.672398], [10.373919, 46.681906], [10.384771, 46.689012], [10.394383, 46.70082], [10.396554, 46.715005], [10.395623, 46.7264], [10.399654, 46.735546], [10.416604, 46.743014], [10.428696, 46.755648], [10.426216, 46.76942], [10.419085, 46.783967], [10.417224, 46.79885], [10.439032, 46.816885], [10.444923, 46.823241], [10.44854, 46.832233], [10.453811, 46.864427]]]}}, {"type": "Feature", "properties": {"ADM0_LEFT": "Switzerland", "ADM0_RIGHT": "Austria", "NAME": null}, "geometry": {"type": "MultiLineString", "coordinates": [[[9.860566, 47.001602], [9.856328, 47.004083], [9.857982, 47.015478], [9.669053, 47.056199], [9.65231, 47.05793]], [[9.65231, 47.05793], [9.59991, 47.053486]], [[9.59991, 47.053486], [9.581203, 47.05687]], [[10.13197, 46.846573], [10.125188, 46.846751], [10.1113, 46.847116], [10.068098, 46.856624], [10.045567, 46.865564], [10.006913, 46.890757], [9.899943, 46.914398], [9.875138, 46.927421], [9.862426, 46.939772], [9.860772, 46.949151], [9.863976, 46.959925], [9.866457, 46.983387], [9.870591, 46.992947], [9.870591, 46.998838], [9.866767, 47.001938]], [[9.866767, 47.001938], [9.860566, 47.001602]], [[10.384255, 46.993153], [10.378984, 46.995505], [10.373403, 46.996254]], [[10.373403, 46.996254], [10.367925, 46.995505], [10.338883, 46.98411], [10.313665, 46.964318], [10.296198, 46.941374], [10.295681, 46.922693], [10.270773, 46.921892]], [[10.453811, 46.864427], [10.451434, 46.88577], [10.463836, 46.919747], [10.458462, 46.936619], [10.449574, 46.943906], [10.415571, 46.962406], [10.394693, 46.985402], [10.384358, 46.992998], [10.384358, 46.993153]], [[10.384358, 46.993153], [10.384255, 46.993153]], [[10.270773, 46.921892], [10.251343, 46.92538]], [[10.251343, 46.92538], [10.235116, 46.923313], [10.219924, 46.905769], [10.215169, 46.893108], [10.214342, 46.884685], [10.211655, 46.877036], [10.201423, 46.86683], [10.157808, 46.851612], [10.13197, 46.846573]]]}}, {"type": "Feature", "properties": {"ADM0_LEFT": "Liechtenstein", "ADM0_RIGHT": "Austria", "NAME": null}, "geometry": {"type": "MultiLineString", "coordinates": [[[9.581203, 47.05687], [9.608798, 47.080771], [9.615723, 47.106764], [9.605594, 47.132266], [9.581823, 47.154901], [9.552057, 47.16689], [9.551954, 47.175571], [9.561876, 47.190609], [9.562909, 47.19774], [9.554331, 47.211615], [9.544823, 47.220323], [9.540378, 47.229108], [9.547096, 47.243035], [9.53025, 47.253654], [9.521155, 47.262801]]]}}, {"type": "Feature", "properties": {"ADM0_LEFT": "Austria", "ADM0_RIGHT": "Italy", "NAME": null}, "geometry": {"type": "MultiLineString", "coordinates": [[[12.180631, 47.085215], [12.204195, 47.079686], [12.203897, 47.067012], [12.203575, 47.053331], [12.182284, 47.033616], [12.12172, 47.010517], [12.111178, 46.992998], [12.117792, 46.983076], [12.122133, 46.971656], [12.128231, 46.948582], [12.134742, 46.937446], [12.141667, 46.927989], [12.141563, 46.918843], [12.126887, 46.908869], [12.137429, 46.905924], [12.160994, 46.90303], [12.172156, 46.89918], [12.183525, 46.891222], [12.189002, 46.884943], [12.1951, 46.880085], [12.208743, 46.876623], [12.250807, 46.875615], [12.26662, 46.868148], [12.275819, 46.846289], [12.276129, 46.83399], [12.273338, 46.826755], [12.269618, 46.819831], [12.26693, 46.808255], [12.266724, 46.795336], [12.269101, 46.788566], [12.274785, 46.784639], [12.284397, 46.779988], [12.305274, 46.774459], [12.326048, 46.772495], [12.342688, 46.765131], [12.351473, 46.743246], [12.370387, 46.711155], [12.40501, 46.690123], [12.445627, 46.678702], [12.469632, 46.675799], [12.499888, 46.672139], [12.53079, 46.65767], [12.547327, 46.652192], [12.562003, 46.65121]], [[11.73487, 46.970622], [11.746445, 46.972457], [11.766082, 46.983438], [11.777141, 46.988296], [11.822513, 46.993257], [11.857033, 47.012015], [11.899511, 47.027725], [11.943643, 47.038164], [12.014956, 47.040489], [12.116242, 47.076559], [12.133146, 47.078832], [12.180631, 47.085215]], [[11.471837, 47.00708], [11.489407, 47.004212], [11.495918, 47.001602], [11.501706, 46.997856], [11.506977, 46.992998], [11.515348, 46.989484], [11.524443, 46.988347]], [[11.411169, 46.970493], [11.445172, 46.992998], [11.445275, 46.993102], [11.452923, 47.000879], [11.461812, 47.005504], [11.471837, 47.00708]], [[11.59648, 47.00044], [11.64795, 46.993257]], [[11.524443, 46.988347], [11.533849, 46.989536], [11.543254, 46.992998], [11.543357, 46.992998], [11.543564, 46.993102], [11.543667, 46.993102], [11.572709, 46.998915], [11.59648, 47.00044]], [[11.664797, 46.993257], [11.683814, 46.991913], [11.716163, 46.97548], [11.73487, 46.970622]], [[11.657252, 46.992533], [11.664797, 46.993257]], [[11.648467, 46.993257], [11.649707, 46.992998], [11.657252, 46.992533]], [[11.64795, 46.993257], [11.648467, 46.993257]], [[11.31381, 46.987262], [11.349467, 46.98194], [11.380576, 46.971553], [11.411169, 46.970493]], [[10.982668, 46.767741], [10.99693, 46.76911], [11.010883, 46.779213], [11.033311, 46.805568], [11.037445, 46.808255], [11.048503, 46.811692], [11.052844, 46.814921], [11.054601, 46.819934], [11.053464, 46.830321], [11.054291, 46.834145], [11.073101, 46.86497], [11.083643, 46.900136], [11.091912, 46.912435], [11.156611, 46.956515], [11.174491, 46.963853], [11.243737, 46.979252], [11.31381, 46.987262]], [[10.453811, 46.864427], [10.486264, 46.846366], [10.527708, 46.843214]], [[10.647081, 46.863756], [10.662481, 46.860965], [10.738962, 46.829546], [10.748677, 46.819443], [10.743819, 46.812518], [10.721598, 46.800142], [10.716947, 46.795207], [10.722942, 46.786448], [10.733691, 46.786189]], [[10.527708, 46.843214], [10.629408, 46.862412], [10.647081, 46.863756]], [[10.754775, 46.790763], [10.76635, 46.788101], [10.795082, 46.776888], [10.804901, 46.776629]], [[10.733691, 46.786189], [10.754775, 46.790763]], [[10.823918, 46.78035], [10.83415, 46.780246], [10.843141, 46.777043], [10.860195, 46.766991], [10.870426, 46.764072]], [[10.804901, 46.776629], [10.823918, 46.78035]], [[10.930888, 46.773994], [10.965718, 46.771642], [10.982668, 46.767741]], [[10.870426, 46.764072], [10.880348, 46.764589], [10.913731, 46.77234], [10.930888, 46.773994]], [[12.62019, 46.656481], [12.669593, 46.653019], [12.671368, 46.652466], [12.679205, 46.650022], [12.697395, 46.640539], [12.706593, 46.637749]], [[12.562003, 46.65121], [12.62019, 46.656481]], [[12.739873, 46.642994], [12.7485, 46.640996], [12.773566, 46.635191], [12.83041, 46.609637], [13.064504, 46.598035], [13.146463, 46.584961], [13.210025, 46.558012], [13.231109, 46.552173], [13.271417, 46.550777]], [[12.706593, 46.637749], [12.715999, 46.637955], [12.732018, 46.64227], [12.739873, 46.642994]], [[13.373323, 46.565789], [13.417041, 46.560492]], [[13.271417, 46.550777], [13.373323, 46.565789]], [[13.478019, 46.563567], [13.484944, 46.561733], [13.499103, 46.550622], [13.506751, 46.546927], [13.549229, 46.545842], [13.670256, 46.518712], [13.685345, 46.517627]], [[13.417041, 46.560492], [13.478019, 46.563567]], [[13.685345, 46.517627], [13.700951, 46.519746]]]}}, {"type": "Feature", "properties": {"ADM0_LEFT": "Slovenia", "ADM0_RIGHT": "Italy", "NAME": null}, "geometry": {"type": "MultiLineString", "coordinates": [[[13.700951, 46.519746], [13.701055, 46.511891], [13.699194, 46.504837], [13.695474, 46.498636], [13.689893, 46.493339], [13.688446, 46.467759], [13.685853, 46.464047], [13.67749, 46.452075], [13.658783, 46.445125]], [[13.658783, 46.445125], [13.634082, 46.445719]], [[13.634082, 46.445719], [13.600182, 46.442644], [13.575688, 46.426676], [13.554397, 46.405954], [13.530006, 46.388332], [13.483704, 46.37115], [13.459726, 46.359032], [13.447323, 46.354846], [13.434094, 46.353864], [13.423242, 46.344847], [13.409806, 46.323608], [13.395638, 46.306728], [13.391306, 46.301568], [13.365261, 46.290302], [13.373013, 46.280277], [13.378594, 46.268391], [13.384692, 46.243328], [13.384795, 46.243225], [13.384898, 46.243122], [13.398127, 46.230513], [13.401641, 46.216663], [13.410116, 46.207982]], [[13.422829, 46.228601], [13.438332, 46.22488], [13.468304, 46.223433], [13.482257, 46.217904], [13.510162, 46.213976], [13.528972, 46.204829], [13.559048, 46.184107], [13.584473, 46.181317]], [[13.410116, 46.207982], [13.437402, 46.210927], [13.422829, 46.228601]], [[13.613928, 46.183539], [13.627366, 46.181733], [13.637389, 46.180386], [13.641071, 46.171405], [13.645037, 46.161731], [13.616409, 46.125041], [13.522585, 46.075298], [13.505098, 46.066027], [13.482257, 46.044839], [13.490318, 46.038948], [13.492799, 46.032489], [13.490008, 46.025564], [13.482257, 46.018433], [13.477089, 46.016055], [13.461793, 46.006392], [13.474815, 45.995747], [13.479466, 45.993111], [13.480396, 45.992284], [13.481223, 45.991354], [13.481843, 45.990372], [13.482257, 45.989235], [13.509439, 45.967428]], [[13.584473, 46.181317], [13.613928, 46.183539]]]}}, {"type": "Feature", "properties": {"ADM0_LEFT": "Germany", "ADM0_RIGHT": "Austria", "NAME": null}, "geometry": {"type": "MultiLineString", "coordinates": [[[9.547482, 47.534547], [9.549887, 47.533534]]]}}, {"type": "Feature", "properties": {"ADM0_LEFT": "Germany", "ADM0_RIGHT": "Switzerland", "NAME": null}, "geometry": {"type": "MultiLineString", "coordinates": [[[9.016586, 47.6789], [9.128104, 47.670425]], [[8.906205, 47.651795], [8.945376, 47.654302], [8.981756, 47.662156], [8.997673, 47.673835], [9.016586, 47.6789]], [[9.183398, 47.670425], [9.196937, 47.656136]], [[9.128104, 47.670425], [9.183398, 47.670425]], [[9.234351, 47.656162], [9.273211, 47.65009], [9.547482, 47.534547]], [[9.196937, 47.656136], [9.234351, 47.656162]]]}}, {"type": "Feature", "properties": {"ADM0_LEFT": "Switzerland", "ADM0_RIGHT": "Austria", "NAME": null}, "geometry": {"type": "MultiLineString", "coordinates": [[[9.521155, 47.262801], [9.553298, 47.299853], [9.587404, 47.32781], [9.591228, 47.334683], [9.596396, 47.352305], [9.601047, 47.36127], [9.639804, 47.394524], [9.649519, 47.409717], [9.650346, 47.452092], [9.621717, 47.469197], [9.58451, 47.480721], [9.554951, 47.5109], [9.553059, 47.516891], [9.547482, 47.534547]]]}}, {"type": "Feature", "properties": {"ADM0_LEFT": "Switzerland", "ADM0_RIGHT": "Liechtenstein", "NAME": null}, "geometry": {"type": "MultiLineString", "coordinates": [[[9.560636, 47.0524], [9.499554, 47.059351], [9.477023, 47.063898], [9.475886, 47.073226], [9.487565, 47.083949], [9.502861, 47.094698], [9.51237, 47.10803], [9.511853, 47.129372], [9.503481, 47.145392], [9.492629, 47.15981], [9.484981, 47.176346], [9.487358, 47.210014], [9.504618, 47.243732], [9.521155, 47.262801]], [[9.581203, 47.05687], [9.560636, 47.0524]]]}}, {"type": "Feature", "properties": {"ADM0_LEFT": "Germany", "ADM0_RIGHT": "Austria", "NAME": null}, "geometry": {"type": "MultiLineString", "coordinates": [[[13.73728, 48.559259], [13.758054, 48.561481], [13.766012, 48.563755], [13.77428, 48.569207], [13.779034, 48.573935], [13.796191, 48.598585], [13.802392, 48.611711], [13.805493, 48.626129], [13.806216, 48.642923], [13.800945, 48.675221], [13.803529, 48.687159], [13.816862, 48.695582], [13.804356, 48.699561], [13.799395, 48.70261], [13.78875, 48.716511]], [[13.520704, 48.584581], [13.624367, 48.565357], [13.641834, 48.559104], [13.65806, 48.551094], [13.673356, 48.535488], [13.714336, 48.523215], [13.716506, 48.521691]], [[12.75796, 48.121896], [12.764058, 48.123756], [12.77832, 48.138717], [12.782351, 48.142024], [12.822142, 48.160679], [12.835164, 48.170704], [12.853458, 48.18998], [12.862553, 48.196646], [12.877642, 48.202046], [12.93304, 48.209255], [12.931696, 48.211632], [12.947199, 48.220004], [12.979445, 48.232018], [13.016652, 48.255893], [13.032775, 48.263567], [13.136438, 48.291059], [13.274207, 48.307104], [13.307797, 48.319636], [13.405569, 48.376583], [13.419522, 48.392164], [13.425206, 48.413377], [13.42717, 48.418544], [13.431717, 48.423712], [13.436161, 48.430585], [13.438228, 48.440998], [13.436368, 48.469239], [13.438228, 48.478541], [13.442983, 48.487713], [13.456418, 48.506653], [13.459209, 48.516394], [13.457039, 48.525179], [13.447737, 48.534816], [13.443706, 48.552851], [13.440709, 48.557347], [13.440089, 48.560965], [13.445566, 48.567915], [13.454558, 48.573445], [13.487218, 48.581584], [13.520704, 48.584581]], [[13.733869, 48.559776], [13.73728, 48.559259]], [[13.716506, 48.521691], [13.725394, 48.548381], [13.733869, 48.559776]], [[12.751449, 48.122103], [12.75796, 48.121896]], [[12.964045, 47.705358], [12.908338, 47.71236], [12.892009, 47.723548], [12.910612, 47.742927], [12.910819, 47.74303], [12.910819, 47.743082], [12.917227, 47.750161], [12.918984, 47.756776], [12.919294, 47.763184], [12.921257, 47.76954], [12.926735, 47.777395], [12.991227, 47.847106], [12.986576, 47.850259], [12.964976, 47.871963], [12.931076, 47.924879], [12.914229, 47.93599], [12.906168, 47.93891], [12.886014, 47.952888], [12.862036, 47.962552], [12.853975, 47.970484], [12.8486, 47.980948], [12.848246, 47.982389], [12.845603, 47.993144], [12.830617, 48.015468], [12.760234, 48.064871], [12.750932, 48.074741], [12.742043, 48.086782], [12.736979, 48.099959], [12.738943, 48.113447], [12.745041, 48.12063], [12.751449, 48.122103]], [[12.242229, 47.732023], [12.239128, 47.72745], [12.236545, 47.716778], [12.233031, 47.708872], [12.226623, 47.702878], [12.223315, 47.695901], [12.228793, 47.684868], [12.238715, 47.6789]], [[12.165645, 47.603969], [12.173603, 47.60508], [12.202128, 47.629833], [12.205745, 47.636215], [12.206779, 47.645568], [12.205125, 47.672285], [12.202335, 47.677789], [12.197271, 47.680088], [12.189106, 47.685566], [12.181768, 47.692129], [12.178564, 47.697658], [12.1766, 47.705823], [12.192413, 47.710164], [12.216494, 47.723703], [12.225176, 47.727372], [12.239749, 47.731687], [12.242229, 47.732023]], [[13.04094, 47.58335], [13.057063, 47.597664], [13.057683, 47.600429], [13.069569, 47.620247], [13.072049, 47.622417], [13.07422, 47.63451], [13.07484, 47.646654], [13.072049, 47.659469], [13.064091, 47.67399], [13.044557, 47.696573], [13.032258, 47.706624], [13.019856, 47.712929], [13.004353, 47.714608]], [[13.004353, 47.714608], [12.979032, 47.707089], [12.964045, 47.705358]], [[12.407697, 47.693731], [12.42413, 47.69156], [12.428781, 47.685798], [12.43922, 47.664482], [12.444697, 47.656291], [12.452759, 47.649754], [12.482524, 47.633579], [12.49658, 47.628903], [12.517148, 47.628541]], [[12.351473, 47.68169], [12.368423, 47.683551], [12.407697, 47.693731]], [[12.293699, 47.69001], [12.351473, 47.68169]], [[12.238715, 47.6789], [12.249567, 47.680011], [12.271891, 47.687891], [12.293699, 47.69001]], [[12.688713, 47.675127], [12.744834, 47.66536]], [[12.517148, 47.628541], [12.538232, 47.631331], [12.553838, 47.636008], [12.563375, 47.641761], [12.598383, 47.66288], [12.6174, 47.669339], [12.653057, 47.675127], [12.688713, 47.675127]], [[12.761991, 47.666859], [12.751655, 47.649392], [12.767365, 47.63637], [12.793307, 47.624794], [12.81315, 47.611824], [12.785865, 47.602677], [12.773669, 47.5795], [12.77894, 47.554825], [12.803642, 47.541337], [12.819041, 47.539528], [12.828446, 47.537255], [12.836921, 47.532655], [12.882603, 47.498575], [12.931593, 47.473512], [12.942548, 47.470489]], [[12.744834, 47.66536], [12.761991, 47.666859]], [[11.935891, 47.610738], [12.165645, 47.603969]], [[11.820343, 47.575288], [11.830678, 47.577614], [11.840703, 47.594615], [11.851969, 47.599163], [11.935891, 47.610738]], [[11.620458, 47.589654], [11.638958, 47.589241], [11.682573, 47.58335], [11.764015, 47.583117], [11.820343, 47.575288]], [[11.482585, 47.50258], [11.529508, 47.507851], [11.551212, 47.51369], [11.569402, 47.527384], [11.574466, 47.536634], [11.582321, 47.559785], [11.589142, 47.570379], [11.617048, 47.586761], [11.620458, 47.589654]], [[9.782121, 47.588414], [9.79628, 47.584952], [9.807959, 47.576322], [9.811266, 47.564488], [9.809303, 47.552318], [9.813127, 47.54175], [9.833487, 47.534619]], [[9.612622, 47.521881], [9.676701, 47.52263], [9.703986, 47.531415], [9.718455, 47.546711], [9.730858, 47.564901], [9.752665, 47.582058], [9.767135, 47.587277], [9.782121, 47.588414]], [[13.038253, 47.584022], [13.04094, 47.58335]], [[13.03908, 47.561336], [13.038253, 47.584022]], [[10.453604, 47.581102], [10.457118, 47.579242], [10.461563, 47.569914], [10.460322, 47.565987], [10.455465, 47.561181], [10.451744, 47.554825], [10.453501, 47.546246], [10.458772, 47.541647], [10.466937, 47.53772], [10.482543, 47.532862], [10.525125, 47.52847]], [[10.159876, 47.271121], [10.174951, 47.272376], [10.239354, 47.277735], [10.261161, 47.283497], [10.305913, 47.302178], [10.325447, 47.314322], [10.34343, 47.330756], [10.365651, 47.361115], [10.371646, 47.367394], [10.381981, 47.372122], [10.403065, 47.377109], [10.411643, 47.381037], [10.428283, 47.396049], [10.442856, 47.41628], [10.451951, 47.438759], [10.451744, 47.460205], [10.44761, 47.472581], [10.442236, 47.481392], [10.433657, 47.487852], [10.419601, 47.493045], [10.42973, 47.532914], [10.43097, 47.542164], [10.424356, 47.553352], [10.415674, 47.564385], [10.414227, 47.573015], [10.429213, 47.57702], [10.445956, 47.579061], [10.453604, 47.581102]], [[10.583726, 47.562473], [10.60791, 47.562266], [10.739892, 47.52847], [10.743923, 47.525317], [10.74723, 47.52015], [10.752191, 47.515395], [10.760769, 47.513638]], [[10.525125, 47.52847], [10.536907, 47.529865], [10.549619, 47.536789], [10.569876, 47.555936], [10.583726, 47.562473]], [[12.991124, 47.465683], [13.001873, 47.466019], [13.008797, 47.470101], [13.037323, 47.493045], [13.037013, 47.501365], [13.034429, 47.507437], [13.031225, 47.512553], [13.028951, 47.518031], [13.028124, 47.524232], [13.028124, 47.541647], [13.030605, 47.544257], [13.040113, 47.560457], [13.04125, 47.561904]], [[13.04125, 47.561904], [13.03908, 47.561336]], [[9.858912, 47.541337], [9.888988, 47.533792], [9.918753, 47.53219]], [[9.833487, 47.534619], [9.841549, 47.535032], [9.853848, 47.540407], [9.858912, 47.541337]], [[9.945935, 47.540769], [9.948726, 47.524232], [9.959164, 47.514879], [9.97167, 47.506404], [9.980765, 47.492942], [9.980765, 47.489919], [9.981075, 47.48687], [9.982625, 47.481031], [9.993581, 47.476586]], [[9.918753, 47.53219], [9.933843, 47.534206], [9.945935, 47.540769]], [[9.549887, 47.533534], [9.554144, 47.532743], [9.612622, 47.521881]], [[10.844795, 47.531312], [10.858644, 47.530666], [10.86929, 47.526583], [10.892234, 47.514879], [10.883862, 47.508006], [10.851616, 47.493097], [10.858438, 47.485165], [10.909907, 47.46899], [10.959827, 47.432506], [10.962824, 47.427959], [10.963134, 47.421241], [10.96086, 47.414316], [10.957656, 47.409717], [10.955279, 47.409614], [10.965511, 47.396075], [10.979464, 47.390545], [11.083747, 47.389512]], [[10.760769, 47.513638], [10.790328, 47.516067], [10.830636, 47.528573], [10.844795, 47.531312]], [[11.435353, 47.509711], [11.459951, 47.507437], [11.482585, 47.50258]], [[11.237019, 47.393956], [11.258827, 47.400725], [11.273089, 47.411112], [11.286318, 47.423205], [11.305645, 47.4354], [11.324249, 47.439431], [11.367657, 47.440129], [11.383884, 47.444857], [11.392462, 47.454779], [11.388638, 47.46222], [11.377786, 47.467052], [11.365487, 47.469326], [11.412616, 47.506094], [11.435353, 47.509711]], [[10.022623, 47.487955], [10.071819, 47.439121], [10.080604, 47.42739], [10.075953, 47.416874], [10.053215, 47.40486], [10.064171, 47.396178], [10.066858, 47.385791], [10.067788, 47.375042], [10.073162, 47.365482], [10.082878, 47.359074]], [[9.993581, 47.476586], [10.002366, 47.47917], [10.011254, 47.484441], [10.022623, 47.487955]], [[12.96973, 47.475734], [12.979342, 47.472246], [12.984923, 47.468267], [12.991124, 47.465683]], [[12.942548, 47.470489], [12.951023, 47.472478], [12.959291, 47.475527], [12.96973, 47.475734]], [[11.193818, 47.428941], [11.215212, 47.422998], [11.213041, 47.395816], [11.237019, 47.393956]], [[11.083747, 47.389512], [11.10328, 47.393568], [11.168599, 47.424264], [11.193818, 47.428941]], [[10.190881, 47.379228], [10.209278, 47.372484], [10.208555, 47.354475], [10.190468, 47.317475], [10.192742, 47.310912], [10.193259, 47.304917], [10.190778, 47.298251], [10.18592, 47.294995], [10.172691, 47.292308], [10.168661, 47.290422], [10.159462, 47.279131], [10.155431, 47.272878], [10.159876, 47.271121]], [[10.130833, 47.362666], [10.135071, 47.364888], [10.146956, 47.373802], [10.190881, 47.379228]], [[10.11037, 47.367394], [10.11533, 47.366955], [10.125666, 47.362692], [10.130833, 47.362666]], [[10.082878, 47.359074], [10.089596, 47.359281], [10.097244, 47.363131], [10.11037, 47.367394]]]}}, {"type": "Feature", "properties": {"ADM0_LEFT": "Slovenia", "ADM0_RIGHT": "Austria", "NAME": null}, "geometry": {"type": "MultiLineString", "coordinates": [[[13.782135, 46.507782], [13.716093, 46.518867], [13.700951, 46.519746]], [[13.998763, 46.480523], [13.98233, 46.481918], [13.890862, 46.511787], [13.860683, 46.51525]], [[13.860683, 46.51525], [13.795778, 46.507886], [13.782135, 46.507782]], [[14.032456, 46.484709], [14.014922, 46.482531], [13.998763, 46.480523]]]}}]}